STARLINK-36517          
1 67454U 26008K   26034.58335648 -.02060085  00000+0 -24872-1 0  9995
2 67454  43.0003  40.5861 0001270 280.6795 114.7512 15.63354350  4335
STARLINK-36516          
1 67455U 26008L   26034.58335648 -.02065284  00000+0 -22495-1 0  9991
2 67455  43.0000  40.5190 0001309 279.9323 142.6141 15.65920130  4312
STARLINK-36493          
1 67456U 26008M   26034.58335648 -.02067760  00000+0 -21749-1 0  9994
2 67456  43.0001  40.5140 0001218 283.0277 141.6676 15.66779795  4314
STARLINK-36529          
1 67457U 26008N   26034.58335648 -.02072482  00000+0 -17490-1 0  9990
2 67457  43.0000  40.4496 0001202 279.8323 170.5158 15.72034385  4317
STARLINK-36528          
1 67458U 26008P   26034.43931037  .00380334  00000+0  23569-2 0  9998
2 67458  42.9997  41.3041 0002521 354.3899   5.6941 15.75157449  4306
STARLINK-36546          
1 67459U 26008Q   26034.37584272 -.00758341  00000+0 -57598-2 0  9995
2 67459  42.9996  41.6880 0002462 288.0406  72.0194 15.73527551  4290
STARLINK-36523          
1 67460U 26008R   26034.37535837 -.00556814  00000+0 -40137-2 0  9992
2 67460  42.9996  41.6840 0002182 327.2297  32.8436 15.74179764  4294
STARLINK-36522          
1 67461U 26008S   26034.58335648 -.02064204  00000+0 -22135-1 0  9990
2 67461  43.0001  40.4924 0001185 283.0936 149.8597 15.66302360  4316
STARLINK-36504          
1 67462U 26008T   26034.43795633  .00192216  00000+0  12229-2 0  9994
2 67462  42.9997  41.2925 0001264 268.5600  91.5125 15.75099494  4303
STARLINK-36505          
1 67463U 26008U   26034.43762263  .00111744  00000+0  72052-3 0  9996
2 67463  42.9997  41.2902 0001272 292.1449  67.9285 15.75052984  4309
STARLINK-36421          
1 67464U 26008V   26034.58335648 -.02068274  00000+0 -22293-1 0  9999
2 67464  42.9998  40.4803 0001194 281.7553 156.0815 15.66182952  4314
STARLINK-36437          
1 67465U 26008W   26034.43694264  .00170254  00000+0  10866-2 0  9998
2 67465  43.0002  41.2845 0001522 263.8136  96.2560 15.75095342  4308
