CCSDS_OMM_VERS = 2.0
CREATION_DATE  = 
ORIGINATOR     = 

OBJECT_NAME    = STARLINK-36517
OBJECT_ID      = 2026-008K
CENTER_NAME    = EARTH
REF_FRAME      = TEME
TIME_SYSTEM    = UTC
MEAN_ELEMENT_THEORY = SGP/SGP4

EPOCH          = 2026-02-03T14:00:01.999872
MEAN_MOTION    = 15.63354350
ECCENTRICITY   = .000127
INCLINATION    = 43.0003
RA_OF_ASC_NODE = 40.5861
ARG_OF_PERICENTER = 280.6795
MEAN_ANOMALY   = 114.7512

EPHEMERIS_TYPE = 0
CLASSIFICATION_TYPE = U
NORAD_CAT_ID   = 67454
ELEMENT_SET_NO = 999
REV_AT_EPOCH   = 433
BSTAR          = -.24872053E-1
MEAN_MOTION_DOT = -.2060085E-1
MEAN_MOTION_DDOT = 0

CCSDS_OMM_VERS = 2.0
CREATION_DATE  = 
ORIGINATOR     = 

OBJECT_NAME    = STARLINK-36516
OBJECT_ID      = 2026-008L
CENTER_NAME    = EARTH
REF_FRAME      = TEME
TIME_SYSTEM    = UTC
MEAN_ELEMENT_THEORY = SGP/SGP4

EPOCH          = 2026-02-03T14:00:01.999872
MEAN_MOTION    = 15.65920130
ECCENTRICITY   = .0001309
INCLINATION    = 43.0000
RA_OF_ASC_NODE = 40.5190
ARG_OF_PERICENTER = 279.9323
MEAN_ANOMALY   = 142.6141

EPHEMERIS_TYPE = 0
CLASSIFICATION_TYPE = U
NORAD_CAT_ID   = 67455
ELEMENT_SET_NO = 999
REV_AT_EPOCH   = 431
BSTAR          = -.22495037E-1
MEAN_MOTION_DOT = -.2065284E-1
MEAN_MOTION_DDOT = 0

CCSDS_OMM_VERS = 2.0
CREATION_DATE  = 
ORIGINATOR     = 

OBJECT_NAME    = STARLINK-36493
OBJECT_ID      = 2026-008M
CENTER_NAME    = EARTH
REF_FRAME      = TEME
TIME_SYSTEM    = UTC
MEAN_ELEMENT_THEORY = SGP/SGP4

EPOCH          = 2026-02-03T14:00:01.999872
MEAN_MOTION    = 15.66779795
ECCENTRICITY   = .00012187
INCLINATION    = 43.0001
RA_OF_ASC_NODE = 40.5140
ARG_OF_PERICENTER = 283.0277
MEAN_ANOMALY   = 141.6676

EPHEMERIS_TYPE = 0
CLASSIFICATION_TYPE = U
NORAD_CAT_ID   = 67456
ELEMENT_SET_NO = 999
REV_AT_EPOCH   = 431
BSTAR          = -.21749285E-1
MEAN_MOTION_DOT = -.206776E-1
MEAN_MOTION_DDOT = 0

CCSDS_OMM_VERS = 2.0
CREATION_DATE  = 
ORIGINATOR     = 

OBJECT_NAME    = STARLINK-36529
OBJECT_ID      = 2026-008N
CENTER_NAME    = EARTH
REF_FRAME      = TEME
TIME_SYSTEM    = UTC
MEAN_ELEMENT_THEORY = SGP/SGP4

EPOCH          = 2026-02-03T14:00:01.999872
MEAN_MOTION    = 15.72034385
ECCENTRICITY   = .0001202
INCLINATION    = 43.0000
RA_OF_ASC_NODE = 40.4496
ARG_OF_PERICENTER = 279.8323
MEAN_ANOMALY   = 170.5158

EPHEMERIS_TYPE = 0
CLASSIFICATION_TYPE = U
NORAD_CAT_ID   = 67457
ELEMENT_SET_NO = 999
REV_AT_EPOCH   = 431
BSTAR          = -.17489872E-1
MEAN_MOTION_DOT = -.2072482E-1
MEAN_MOTION_DDOT = 0

CCSDS_OMM_VERS = 2.0
CREATION_DATE  = 
ORIGINATOR     = 

OBJECT_NAME    = STARLINK-36528
OBJECT_ID      = 2026-008P
CENTER_NAME    = EARTH
REF_FRAME      = TEME
TIME_SYSTEM    = UTC
MEAN_ELEMENT_THEORY = SGP/SGP4

EPOCH          = 2026-02-03T10:32:36.415968
MEAN_MOTION    = 15.75157449
ECCENTRICITY   = .00025218
INCLINATION    = 42.9997
RA_OF_ASC_NODE = 41.3041
ARG_OF_PERICENTER = 354.3899
MEAN_ANOMALY   = 5.6941

EPHEMERIS_TYPE = 0
CLASSIFICATION_TYPE = U
NORAD_CAT_ID   = 67458
ELEMENT_SET_NO = 999
REV_AT_EPOCH   = 430
BSTAR          = .23569003E-2
MEAN_MOTION_DOT = .380334E-2
MEAN_MOTION_DDOT = 0

CCSDS_OMM_VERS = 2.0
CREATION_DATE  = 
ORIGINATOR     = 

OBJECT_NAME    = STARLINK-36546
OBJECT_ID      = 2026-008Q
CENTER_NAME    = EARTH
REF_FRAME      = TEME
TIME_SYSTEM    = UTC
MEAN_ELEMENT_THEORY = SGP/SGP4

EPOCH          = 2026-02-03T09:01:12.811008
MEAN_MOTION    = 15.73527551
ECCENTRICITY   = .00024629
INCLINATION    = 42.9996
RA_OF_ASC_NODE = 41.6880
ARG_OF_PERICENTER = 288.0406
MEAN_ANOMALY   = 72.0194

EPHEMERIS_TYPE = 0
CLASSIFICATION_TYPE = U
NORAD_CAT_ID   = 67459
ELEMENT_SET_NO = 999
REV_AT_EPOCH   = 429
BSTAR          = -.57597972E-2
MEAN_MOTION_DOT = -.758341E-2
MEAN_MOTION_DDOT = 0

CCSDS_OMM_VERS = 2.0
CREATION_DATE  = 
ORIGINATOR     = 

OBJECT_NAME    = STARLINK-36523
OBJECT_ID      = 2026-008R
CENTER_NAME    = EARTH
REF_FRAME      = TEME
TIME_SYSTEM    = UTC
MEAN_ELEMENT_THEORY = SGP/SGP4

EPOCH          = 2026-02-03T09:00:30.963168
MEAN_MOTION    = 15.74179764
ECCENTRICITY   = .00021821
INCLINATION    = 42.9996
RA_OF_ASC_NODE = 41.6840
ARG_OF_PERICENTER = 327.2297
MEAN_ANOMALY   = 32.8436

EPHEMERIS_TYPE = 0
CLASSIFICATION_TYPE = U
NORAD_CAT_ID   = 67460
ELEMENT_SET_NO = 999
REV_AT_EPOCH   = 429
BSTAR          = -.40136582E-2
MEAN_MOTION_DOT = -.556814E-2
MEAN_MOTION_DDOT = 0

CCSDS_OMM_VERS = 2.0
CREATION_DATE  = 
ORIGINATOR     = 

OBJECT_NAME    = STARLINK-36522
OBJECT_ID      = 2026-008S
CENTER_NAME    = EARTH
REF_FRAME      = TEME
TIME_SYSTEM    = UTC
MEAN_ELEMENT_THEORY = SGP/SGP4

EPOCH          = 2026-02-03T14:00:01.999872
MEAN_MOTION    = 15.66302360
ECCENTRICITY   = .00011852
INCLINATION    = 43.0001
RA_OF_ASC_NODE = 40.4924
ARG_OF_PERICENTER = 283.0936
MEAN_ANOMALY   = 149.8597

EPHEMERIS_TYPE = 0
CLASSIFICATION_TYPE = U
NORAD_CAT_ID   = 67461
ELEMENT_SET_NO = 999
REV_AT_EPOCH   = 431
BSTAR          = -.22135137E-1
MEAN_MOTION_DOT = -.2064204E-1
MEAN_MOTION_DDOT = 0

CCSDS_OMM_VERS = 2.0
CREATION_DATE  = 
ORIGINATOR     = 

OBJECT_NAME    = STARLINK-36504
OBJECT_ID      = 2026-008T
CENTER_NAME    = EARTH
REF_FRAME      = TEME
TIME_SYSTEM    = UTC
MEAN_ELEMENT_THEORY = SGP/SGP4

EPOCH          = 2026-02-03T10:30:39.426912
MEAN_MOTION    = 15.75099494
ECCENTRICITY   = .00012645
INCLINATION    = 42.9997
RA_OF_ASC_NODE = 41.2925
ARG_OF_PERICENTER = 268.5600
MEAN_ANOMALY   = 91.5125

EPHEMERIS_TYPE = 0
CLASSIFICATION_TYPE = U
NORAD_CAT_ID   = 67462
ELEMENT_SET_NO = 999
REV_AT_EPOCH   = 430
BSTAR          = .1222894E-2
MEAN_MOTION_DOT = .192216E-2
MEAN_MOTION_DDOT = 0

CCSDS_OMM_VERS = 2.0
CREATION_DATE  = 
ORIGINATOR     = 

OBJECT_NAME    = STARLINK-36505
OBJECT_ID      = 2026-008U
CENTER_NAME    = EARTH
REF_FRAME      = TEME
TIME_SYSTEM    = UTC
MEAN_ELEMENT_THEORY = SGP/SGP4

EPOCH          = 2026-02-03T10:30:10.595232
MEAN_MOTION    = 15.75052984
ECCENTRICITY   = .00012724
INCLINATION    = 42.9997
RA_OF_ASC_NODE = 41.2902
ARG_OF_PERICENTER = 292.1449
MEAN_ANOMALY   = 67.9285

EPHEMERIS_TYPE = 0
CLASSIFICATION_TYPE = U
NORAD_CAT_ID   = 67463
ELEMENT_SET_NO = 999
REV_AT_EPOCH   = 430
BSTAR          = .72052072E-3
MEAN_MOTION_DOT = .111744E-2
MEAN_MOTION_DDOT = 0

CCSDS_OMM_VERS = 2.0
CREATION_DATE  = 
ORIGINATOR     = 

OBJECT_NAME    = STARLINK-36421
OBJECT_ID      = 2026-008V
CENTER_NAME    = EARTH
REF_FRAME      = TEME
TIME_SYSTEM    = UTC
MEAN_ELEMENT_THEORY = SGP/SGP4

EPOCH          = 2026-02-03T14:00:01.999872
MEAN_MOTION    = 15.66182952
ECCENTRICITY   = .00011949
INCLINATION    = 42.9998
RA_OF_ASC_NODE = 40.4803
ARG_OF_PERICENTER = 281.7553
MEAN_ANOMALY   = 156.0815

EPHEMERIS_TYPE = 0
CLASSIFICATION_TYPE = U
NORAD_CAT_ID   = 67464
ELEMENT_SET_NO = 999
REV_AT_EPOCH   = 431
BSTAR          = -.22293405E-1
MEAN_MOTION_DOT = -.2068274E-1
MEAN_MOTION_DDOT = 0

CCSDS_OMM_VERS = 2.0
CREATION_DATE  = 
ORIGINATOR     = 

OBJECT_NAME    = STARLINK-36437
OBJECT_ID      = 2026-008W
CENTER_NAME    = EARTH
REF_FRAME      = TEME
TIME_SYSTEM    = UTC
MEAN_ELEMENT_THEORY = SGP/SGP4

EPOCH          = 2026-02-03T10:29:11.844096
MEAN_MOTION    = 15.75095342
ECCENTRICITY   = .00015226
INCLINATION    = 43.0002
RA_OF_ASC_NODE = 41.2845
ARG_OF_PERICENTER = 263.8136
MEAN_ANOMALY   = 96.2560

EPHEMERIS_TYPE = 0
CLASSIFICATION_TYPE = U
NORAD_CAT_ID   = 67465
ELEMENT_SET_NO = 999
REV_AT_EPOCH   = 430
BSTAR          = .1086553E-2
MEAN_MOTION_DOT = .170254E-2
MEAN_MOTION_DDOT = 0

